[{"OBJECT_NAME":"GEISAT PRECURSOR","OBJECT_ID":"2023-084C","EPOCH":"2026-03-09T22:20:25.833120","MEAN_MOTION":15.33054389,"ECCENTRICITY":0.00051675,"INCLINATION":97.6055,"RA_OF_ASC_NODE":206.8263,"ARG_OF_PERICENTER":345.1842,"MEAN_ANOMALY":14.9247,"EPHEMERIS_TYPE":0,"CLASSIFICATION_TYPE":"U","NORAD_CAT_ID":56934,"ELEMENT_SET_NO":999,"REV_AT_EPOCH":15231,"BSTAR":0.00033857167,"MEAN_MOTION_DOT":0.00010736,"MEAN_MOTION_DDOT":0},{"OBJECT_NAME":"STARLINK-33594","OBJECT_ID":"2025-015N","EPOCH":"2026-03-09T22:29:10.700160","MEAN_MOTION":15.30199288,"ECCENTRICITY":7.18e-5,"INCLINATION":53.1581,"RA_OF_ASC_NODE":320.9801,"ARG_OF_PERICENTER":115.1815,"MEAN_ANOMALY":244.926,"EPHEMERIS_TYPE":0,"CLASSIFICATION_TYPE":"U","NORAD_CAT_ID":62770,"ELEMENT_SET_NO":999,"REV_AT_EPOCH":6452,"BSTAR":0.00097289151,"MEAN_MOTION_DOT":0.00028565,"MEAN_MOTION_DDOT":0}]
